NORAD_CAT_ID,OBJECT_NAME,OBJECT_TYPE,EPOCH,MEAN_MOTION,ECCENTRICITY,INCLINATION,RA_OF_ASC_NODE,ARG_OF_PERICENTER,MEAN_ANOMALY,BSTAR,MEAN_MOTION_DOT,MEAN_MOTION_DDOT,TLE_LINE0,TLE_LINE1,TLE_LINE2,SEMIMAJOR_AXIS,PERIOD,APOGEE,PERIGEE,DECAYED
51108.0,STARLINK-3362,PAYLOAD,2023-06-29 18:43:17,15.08846508,0.000129,53.218,26.0619,90.1646,269.9494,0.00010825,1.436e-05,0.0,0 STARLINK-3362,1 51108U 22005E   23180.78006138  .00001436  00000-0  10825-3 0  9994,2 51108  53.2180  26.0619 0001290  90.1646 269.9494 15.08846508 81443,6917.86,95.437,540.618,538.833,0.0
51108.0,STARLINK-3362,PAYLOAD,2023-06-30 13:47:55,15.08839416,0.0001156,53.2176,22.4921,91.7848,268.3276,7.6317e-05,9.27e-06,0.0,0 STARLINK-3362,1 51108U 22005E   23181.57494536  .00000927  00000-0  76317-4 0  9998,2 51108  53.2176  22.4921 0001156  91.7848 268.3276 15.08839416 81560,6917.882,95.438,540.547,538.947,0.0
51108.0,STARLINK-3362,PAYLOAD,2023-06-30 21:44:50,15.08841483,0.0001126,53.218,21.0063,86.7418,273.3703,9.0153e-05,1.147e-05,0.0,0 STARLINK-3362,1 51108U 22005E   23181.90614338  .00001147  00000-0  90153-4 0  9998,2 51108  53.2180  21.0063 0001126  86.7418 273.3703 15.08841483 81615,6917.876,95.437,540.52,538.962,0.0
51108.0,STARLINK-3362,PAYLOAD,2023-07-01 18:24:51,15.08840881,0.0001126,53.2183,17.1404,91.2699,268.8422,1.299e-05,-8.1e-07,0.0,0 STARLINK-3362,1 51108U 22005E   23182.76726598 -.00000081  00000-0  12990-4 0  9995,2 51108  53.2183  17.1404 0001126  91.2699 268.8422 15.08840881 81747,6917.878,95.437,540.522,538.964,0.0
51108.0,STARLINK-3362,PAYLOAD,2023-07-01 23:11:00,15.08846434,0.0001078,53.2181,16.2488,95.581,264.5305,1.6832e-05,-2e-07,0.0,0 STARLINK-3362,1 51108U 22005E   23182.96598169 -.00000020  00000-0  16832-4 0  9990,2 51108  53.2181  16.2488 0001078  95.5810 264.5305 15.08846434 81771,6917.861,95.437,540.471,538.98,0.0
51108.0,STARLINK-3362,PAYLOAD,2023-07-02 11:54:06,15.0883217,0.0001085,53.2178,13.87,91.1991,268.9125,2.6996e-05,1.42e-06,0.0,0 STARLINK-3362,1 51108U 22005E   23183.49591090  .00000142  00000-0  26996-4 0  9991,2 51108  53.2178  13.8700 0001085  91.1991 268.9125 15.08832170 81856,6917.904,95.438,540.52,539.019,0.0
51108.0,STARLINK-3362,PAYLOAD,2023-07-02 19:51:02,15.08839319,0.0001088,53.2179,12.3838,93.086,267.0256,7.1523e-05,8.51e-06,0.0,0 STARLINK-3362,1 51108U 22005E   23183.82710666  .00000851  00000-0  71523-4 0  9993,2 51108  53.2179  12.3838 0001088  93.0860 267.0256 15.08839319 81905,6917.882,95.438,540.5,538.995,0.0
51108.0,STARLINK-3362,PAYLOAD,2023-07-03 11:44:53,15.08838772,0.0001017,53.2177,9.4107,96.538,263.5728,6.2329e-05,7.04e-06,0.0,0 STARLINK-3362,1 51108U 22005E   23184.48950856  .00000704  00000-0  62329-4 0  9994,2 51108  53.2177   9.4107 0001017  96.5380 263.5728 15.08838772 82005,6917.884,95.438,540.453,539.046,0.0
51108.0,STARLINK-3362,PAYLOAD,2023-07-03 16:31:02,15.0883936,0.0001028,53.2178,8.5185,95.5408,264.5702,6.1147e-05,6.86e-06,0.0,0 STARLINK-3362,1 51108U 22005E   23184.68822873  .00000686  00000-0  61147-4 0  9999,2 51108  53.2178   8.5185 0001028  95.5408 264.5702 15.08839360 82034,6917.882,95.438,540.459,539.036,0.0
51108.0,STARLINK-3362,PAYLOAD,2023-07-03 21:17:12,15.08843249,0.0001037,53.2177,7.6263,95.7813,264.3297,9.321e-05,1.196e-05,0.0,0 STARLINK-3362,1 51108U 22005E   23184.88694551  .00001196  00000-0  93210-4 0  9994,2 51108  53.2177   7.6263 0001037  95.7813 264.3297 15.08843249 82063,6917.87,95.437,540.453,539.018,0.0
51108.0,STARLINK-3362,PAYLOAD,2023-07-04 11:35:41,15.08825792,0.0001003,53.218,4.9502,101.0205,259.09,0.00024078,3.545e-05,0.0,0 STARLINK-3362,1 51108U 22005E   23185.48311576  .00003545  00000-0  24078-3 0  9999,2 51108  53.2180   4.9502 0001003 101.0205 259.0900 15.08825792 82157,6917.924,95.438,540.483,539.095,0.0
51108.0,STARLINK-3362,PAYLOAD,2023-07-04 16:21:50,15.08839413,0.0001083,53.2181,4.0581,98.8996,261.2119,6.0177e-05,6.7e-06,0.0,0 STARLINK-3362,1 51108U 22005E   23185.68183018  .00000670  00000-0  60177-4 0  9996,2 51108  53.2181   4.0581 0001083  98.8996 261.2119 15.08839413 82189,6917.882,95.438,540.496,538.998,0.0
51108.0,STARLINK-3362,PAYLOAD,2023-07-04 19:32:36,15.08841417,0.000107,53.218,3.4633,97.4654,262.6459,7.3804e-05,8.87e-06,0.0,0 STARLINK-3362,1 51108U 22005E   23185.81430856  .00000887  00000-0  73804-4 0  9997,2 51108  53.2180   3.4633 0001070  97.4654 262.6459 15.08841417 82203,6917.876,95.437,540.481,539.001,0.0
51108.0,STARLINK-3362,PAYLOAD,2023-07-05 17:48:00,15.08840735,0.0001131,53.2182,359.2998,91.8288,268.2834,4.6714e-05,4.56e-06,0.0,0 STARLINK-3362,1 51108U 22005E   23186.74167057  .00000456  00000-0  46714-4 0  9992,2 51108  53.2182 359.2998 0001131  91.8288 268.2834 15.08840735 82346,6917.878,95.438,540.526,538.961,0.0
51108.0,STARLINK-3362,PAYLOAD,2023-07-06 11:17:14,15.08840745,0.0001066,53.218,356.0289,92.6264,267.485,6.4323e-05,7.36e-06,0.0,0 STARLINK-3362,1 51108U 22005E   23187.47031048  .00000736  00000-0  64323-4 0  9990,2 51108  53.2180 356.0289 0001066  92.6264 267.4850 15.08840745 82454,6917.878,95.438,540.481,539.006,0.0
51108.0,STARLINK-3362,PAYLOAD,2023-07-06 17:38:47,15.08844685,0.0001089,53.2183,354.8397,93.1018,267.0099,9.5132e-05,1.227e-05,0.0,0 STARLINK-3362,1 51108U 22005E   23187.73526701  .00001227  00000-0  95132-4 0  9992,2 51108  53.2183 354.8397 0001089  93.1018 267.0099 15.08844685 82493,6917.866,95.437,540.484,538.978,0.0
51108.0,STARLINK-3362,PAYLOAD,2023-07-07 11:08:01,15.08840224,0.0001124,53.218,351.5686,92.7549,267.3571,6.6017e-05,7.63e-06,0.0,0 STARLINK-3362,1 51108U 22005E   23188.46391077  .00000763  00000-0  66017-4 0  9993,2 51108  53.2180 351.5686 0001124  92.7549 267.3571 15.08840224 82605,6917.88,95.438,540.522,538.967,0.0
51108.0,STARLINK-3362,PAYLOAD,2023-07-07 17:29:34,15.08843506,0.0001102,53.2183,350.3786,96.6983,263.4135,9.2942e-05,1.192e-05,0.0,0 STARLINK-3362,1 51108U 22005E   23188.72886752  .00001192  00000-0  92942-4 0  9994,2 51108  53.2183 350.3786 0001102  96.6983 263.4135 15.08843506 82640,6917.87,95.437,540.497,538.972,0.0
51108.0,STARLINK-3362,PAYLOAD,2023-07-08 10:58:49,15.08839653,0.0001133,53.2184,347.1076,96.869,263.2431,2.4051e-05,9.5e-07,0.0,0 STARLINK-3362,1 51108U 22005E   23189.45751194  .00000095  00000-0  24051-4 0  9993,2 51108  53.2184 347.1076 0001133  96.8690 263.2431 15.08839653 82755,6917.881,95.438,540.53,538.963,0.0
51108.0,STARLINK-3362,PAYLOAD,2023-07-08 18:55:44,15.08842671,0.0001082,53.2185,345.6208,95.7952,264.3164,2.8553e-05,1.67e-06,0.0,0 STARLINK-3362,1 51108U 22005E   23189.78870953  .00000167  00000-0  28553-4 0  9995,2 51108  53.2185 345.6208 0001082  95.7952 264.3164 15.08842671 82803,6917.872,95.437,540.486,538.989,0.0
51108.0,STARLINK-3362,PAYLOAD,2023-07-09 02:52:40,15.0884181,0.0001071,53.2185,344.1338,93.4667,266.6448,-2.4027e-05,-6.7e-06,0.0,0 STARLINK-3362,1 51108U 22005E   23190.11991114 -.00000670  00000-0 -24027-4 0  9990,2 51108  53.2185 344.1338 0001071  93.4667 266.6448 15.08841810 82856,6917.875,95.437,540.481,538.999,0.0
51108.0,STARLINK-3362,PAYLOAD,2023-07-09 10:49:36,15.08831591,0.0001093,53.2192,342.6471,105.0867,255.0246,-2.6137e-05,-7.04e-06,0.0,0 STARLINK-3362,1 51108U 22005E   23190.45111902 -.00000704  00000-0 -26137-4 0  9998,2 51108  53.2192 342.6471 0001093 105.0867 255.0246 15.08831591 82900,6917.906,95.438,540.527,539.015,0.0
51108.0,STARLINK-3362,PAYLOAD,2023-07-09 17:11:09,15.08835311,0.000113,53.2188,341.4591,100.0807,260.0313,6.4277e-06,-1.86e-06,0.0,0 STARLINK-3362,1 51108U 22005E   23190.71607664 -.00000186  00000-0  64277-5 0  9993,2 51108  53.2188 341.4591 0001130 100.0807 260.0313 15.08835311 82945,6917.895,95.438,540.541,538.978,0.0
51108.0,STARLINK-3362,PAYLOAD,2023-07-10 02:43:27,15.08836163,0.0001101,53.2185,339.6725,93.1384,266.9735,2.6843e-05,1.39e-06,0.0,0 STARLINK-3362,1 51108U 22005E   23191.11351625  .00000139  00000-0  26843-4 0  9994,2 51108  53.2185 339.6725 0001101  93.1384 266.9735 15.08836163 83007,6917.892,95.438,540.519,538.995,0.0
51108.0,STARLINK-3362,PAYLOAD,2023-07-10 18:37:18,15.0884285,0.0001019,53.2178,336.6997,108.3948,251.7155,0.00010028,1.309e-05,0.0,0 STARLINK-3362,1 51108U 22005E   23191.77591041  .00001309  00000-0  10028-3 0  9991,2 51108  53.2178 336.6997 0001019 108.3948 251.7155 15.08842850 83109,6917.872,95.437,540.442,539.032,0.0
51108.0,STARLINK-3362,PAYLOAD,2023-07-11 02:34:14,15.08839111,9.85e-05,53.2188,335.2124,90.4721,269.6384,4.3217e-05,4e-06,0.0,0 STARLINK-3362,1 51108U 22005E   23192.10711431  .00000400  00000-0  43217-4 0  9994,2 51108  53.2188 335.2124 0000985  90.4721 269.6384 15.08839111 83151,6917.883,95.438,540.43,539.067,0.0
51108.0,STARLINK-3362,PAYLOAD,2023-07-11 18:28:06,15.0883591,9.41e-05,53.2184,332.2385,91.9267,268.1833,4.3604e-05,4.06e-06,0.0,0 STARLINK-3362,1 51108U 22005E   23192.76951835  .00000406  00000-0  43604-4 0  9996,2 51108  53.2184 332.2385 0000941  91.9267 268.1833 15.08835910 83253,6917.893,95.438,540.409,539.107,0.0
51108.0,STARLINK-3362,PAYLOAD,2023-07-11 21:38:52,15.08842294,0.0001211,53.2184,331.6443,90.2227,269.8903,9.5309e-05,1.229e-05,0.0,0 STARLINK-3362,1 51108U 22005E   23192.90199344  .00001229  00000-0  95309-4 0  9994,2 51108  53.2184 331.6443 0001211  90.2227 269.8903 15.08842294 83271,6917.873,95.437,540.576,538.901,0.0
51108.0,STARLINK-3362,PAYLOAD,2023-07-12 08:46:35,15.08829102,7.13e-05,53.2182,329.5625,89.6601,270.4473,7.2527e-06,-1.72e-06,0.0,0 STARLINK-3362,1 51108U 22005E   23193.36568392 -.00000172  00000-0  72527-5 0  9993,2 51108  53.2182 329.5625 0000713  89.6601 270.4473 15.08829102 83342,6917.914,95.438,540.272,539.285,0.0
51108.0,STARLINK-3362,PAYLOAD,2023-07-12 16:43:29,15.08850271,0.0001002,53.2182,328.0766,89.5597,270.551,5.0232e-05,5.12e-06,0.0,0 STARLINK-3362,1 51108U 22005E   23193.69687140  .00000512  00000-0  50232-4 0  9997,2 51108  53.2182 328.0766 0001002  89.5597 270.5510 15.08850271 83396,6917.849,95.437,540.407,539.021,0.0
